NORAD_CAT_ID,OBJECT_NAME,OBJECT_TYPE,EPOCH,MEAN_MOTION,ECCENTRICITY,INCLINATION,RA_OF_ASC_NODE,ARG_OF_PERICENTER,MEAN_ANOMALY,BSTAR,MEAN_MOTION_DOT,MEAN_MOTION_DDOT,TLE_LINE0,TLE_LINE1,TLE_LINE2,SEMIMAJOR_AXIS,PERIOD,APOGEE,PERIGEE,DECAYED
52598.0,STARLINK-4019,PAYLOAD,2024-01-09 13:58:39,15.08849548,0.0001583,53.216,231.0457,113.75,246.3658,0.00014928,2.089e-05,0.0,0 STARLINK-4019,1 52598U 22052A   24009.58240218  .00002089  00000-0  14928-3 0  9991,2 52598  53.2160 231.0457 0001583 113.7500 246.3658 15.08849548 92304,6917.851,95.437,540.811,538.621,0.0
52598.0,STARLINK-4019,PAYLOAD,2024-01-09 18:44:48,15.08855268,0.0001334,53.2154,230.1586,101.2795,258.8347,0.00021295,3.104e-05,0.0,0 STARLINK-4019,1 52598U 22052A   24009.78111652  .00003104  00000-0  21295-3 0  9996,2 52598  53.2154 230.1586 0001334 101.2795 258.8347 15.08855268 91906,6917.834,95.437,540.622,538.776,0.0
52598.0,STARLINK-4019,PAYLOAD,2024-01-09 21:55:34,15.08857068,0.0001303,53.2156,229.5641,90.5716,269.5426,0.00023007,3.377e-05,0.0,0 STARLINK-4019,1 52598U 22052A   24009.91359496  .00003377  00000-0  23007-3 0  9996,2 52598  53.2156 229.5641 0001303  90.5716 269.5426 15.08857068 92358,6917.828,95.436,540.595,538.792,0.0
52598.0,STARLINK-4019,PAYLOAD,2024-01-10 02:41:43,15.08861174,0.0001335,53.2156,228.6715,98.9606,261.1537,0.00026015,3.857e-05,0.0,0 STARLINK-4019,1 52598U 22052A   24010.11231014  .00003857  00000-0  26015-3 0  9990,2 52598  53.2156 228.6715 0001335  98.9606 261.1537 15.08861174 92382,6917.816,95.436,540.604,538.757,0.0
52598.0,STARLINK-4019,PAYLOAD,2024-01-10 18:35:36,15.08831728,0.0001218,53.2142,225.6992,99.6897,260.4233,-0.00024307,-4.153e-05,0.0,0 STARLINK-4019,1 52598U 22052A   24010.77472901 -.00004153  00000-0 -24307-3 0  9998,2 52598  53.2142 225.6992 0001218  99.6897 260.4233 15.08831728 92052,6917.906,95.438,540.613,538.928,0.0
52598.0,STARLINK-4019,PAYLOAD,2024-01-11 13:40:14,15.0883763,0.000124,53.2146,222.1299,90.2712,269.8423,-0.00011582,-2.131e-05,0.0,0 STARLINK-4019,1 52598U 22052A   24011.56960990 -.00002131  00000-0 -11582-3 0  9991,2 52598  53.2146 222.1299 0001240  90.2712 269.8423 15.08837630 92609,6917.888,95.438,540.61,538.895,0.0
52598.0,STARLINK-4019,PAYLOAD,2024-01-11 20:01:46,15.08836004,0.0001256,53.2137,220.9411,88.2827,271.8309,7.2835e-05,8.71e-06,0.0,0 STARLINK-4019,1 52598U 22052A   24011.83457154  .00000871  00000-0  72835-4 0  9990,2 52598  53.2137 220.9411 0001256  88.2827 271.8309 15.08836004 92219,6917.893,95.438,540.626,538.889,0.0
52598.0,STARLINK-4019,PAYLOAD,2024-01-11 21:37:10,15.08837864,0.0001256,53.2137,220.6436,89.7403,270.3733,0.00013694,1.892e-05,0.0,0 STARLINK-4019,1 52598U 22052A   24011.90081150  .00001892  00000-0  13694-3 0  9998,2 52598  53.2137 220.6436 0001256  89.7403 270.3733 15.08837864 92657,6917.887,95.438,540.621,538.883,0.0
52598.0,STARLINK-4019,PAYLOAD,2024-01-12 19:52:34,15.08840742,0.000141,53.2136,216.4804,74.3689,285.7459,0.00037834,5.739e-05,0.0,0 STARLINK-4019,1 52598U 22052A   24012.82817850  .00005739  00000-0  37834-3 0  9990,2 52598  53.2136 216.4804 0001410  74.3689 285.7459 15.08840742 92795,6917.878,95.438,540.719,538.768,0.0
52598.0,STARLINK-4019,PAYLOAD,2024-01-13 19:43:21,15.08845736,0.0001364,53.2141,212.0189,80.9966,279.118,0.00024429,3.603e-05,0.0,0 STARLINK-4019,1 52598U 22052A   24013.82177644  .00003603  00000-0  24429-3 0  9995,2 52598  53.2141 212.0189 0001364  80.9966 279.1180 15.08845736 92514,6917.863,95.437,540.671,538.784,0.0
52598.0,STARLINK-4019,PAYLOAD,2024-01-14 13:12:35,15.08843849,0.0001482,53.2152,208.746,86.1941,273.922,0.0001435,1.997e-05,0.0,0 STARLINK-4019,1 52598U 22052A   24014.55041604  .00001997  00000-0  14350-3 0  9998,2 52598  53.2152 208.7460 0001482  86.1941 273.9220 15.08843849 93052,6917.869,95.437,540.759,538.708,0.0
52598.0,STARLINK-4019,PAYLOAD,2024-01-14 17:58:45,15.08845076,0.0001452,53.2154,207.8542,91.7196,268.3962,0.00014037,1.947e-05,0.0,0 STARLINK-4019,1 52598U 22052A   24014.74913473  .00001947  00000-0  14037-3 0  9998,2 52598  53.2154 207.8542 0001452  91.7196 268.3962 15.08845076 93084,6917.865,95.437,540.734,538.725,0.0
52598.0,STARLINK-4019,PAYLOAD,2024-01-15 19:24:55,15.08842425,0.0001439,53.2153,203.0963,94.9254,265.1903,6.6822e-05,7.76e-06,0.0,0 STARLINK-4019,1 52598U 22052A   24015.80897359  .00000776  00000-0  66822-4 0  9999,2 52598  53.2153 203.0963 0001439  94.9254 265.1903 15.08842425 93246,6917.873,95.437,540.733,538.742,0.0
52598.0,STARLINK-4019,PAYLOAD,2024-01-16 12:54:10,15.08835099,0.000155,53.216,199.8268,102.5222,257.5943,-3.2593e-05,-8.07e-06,0.0,0 STARLINK-4019,1 52598U 22052A   24016.53761784 -.00000807  00000-0 -32593-4 0  9997,2 52598  53.2160 199.8268 0001550 102.5222 257.5943 15.08835099 92921,6917.895,95.438,540.833,538.688,0.0
52598.0,STARLINK-4019,PAYLOAD,2024-01-16 20:51:06,15.08835159,0.0001401,53.2163,198.3399,97.2124,262.9028,7.1916e-06,-1.73e-06,0.0,0 STARLINK-4019,1 52598U 22052A   24016.86882202 -.00000173  00000-0  71916-5 0  9990,2 52598  53.2163 198.3399 0001401  97.2124 262.9028 15.08835159 93404,6917.895,95.438,540.729,538.791,0.0
52598.0,STARLINK-4019,PAYLOAD,2024-01-17 19:06:29,15.08839268,0.0001368,53.2162,194.1764,95.5627,264.5521,8.4683e-05,1.06e-05,0.0,0 STARLINK-4019,1 52598U 22052A   24017.79617956  .00001060  00000-0  84683-4 0  9994,2 52598  53.2162 194.1764 0001368  95.5627 264.5521 15.08839268 93113,6917.883,95.438,540.694,538.801,0.0
52598.0,STARLINK-4019,PAYLOAD,2024-01-18 11:00:21,15.08837437,0.0001241,53.216,191.2023,92.4705,267.643,9.6078e-05,1.241e-05,0.0,0 STARLINK-4019,1 52598U 22052A   24018.45858198  .00001241  00000-0  96078-4 0  9995,2 52598  53.2160 191.2023 0001241  92.4705 267.6430 15.08837437 93647,6917.888,95.438,540.612,538.895,0.0
52598.0,STARLINK-4019,PAYLOAD,2024-01-18 18:57:17,15.08838555,0.0001238,53.2152,189.7162,83.2195,276.8938,0.00011393,1.526e-05,0.0,0 STARLINK-4019,1 52598U 22052A   24018.78978199  .00001526  00000-0  11393-3 0  9997,2 52598  53.2152 189.7162 0001238  83.2195 276.8938 15.08838555 93693,6917.885,95.438,540.606,538.893,0.0
52598.0,STARLINK-4019,PAYLOAD,2024-01-19 10:51:08,15.08843522,0.0001267,53.2152,186.7422,82.0667,278.0469,8.4e-05,1.049e-05,0.0,0 STARLINK-4019,1 52598U 22052A   24019.45217982  .00001049  00000-0  84000-4 0  9994,2 52598  53.2152 186.7422 0001267  82.0667 278.0469 15.08843522 93369,6917.87,95.437,540.611,538.858,0.0
52598.0,STARLINK-4019,PAYLOAD,2024-01-19 17:12:40,15.08846271,0.0001228,53.2157,185.5539,84.7111,275.4021,9.6987e-05,1.256e-05,0.0,0 STARLINK-4019,1 52598U 22052A   24019.71713654  .00001256  00000-0  96987-4 0  9997,2 52598  53.2157 185.5539 0001228  84.7111 275.4021 15.08846271 93831,6917.861,95.437,540.576,538.877,0.0
52598.0,STARLINK-4019,PAYLOAD,2024-01-20 13:52:42,15.0883659,0.0001284,53.215,181.687,72.9115,287.2017,3.3962e-05,2.53e-06,0.0,0 STARLINK-4019,1 52598U 22052A   24020.57826548  .00000253  00000-0  33962-4 0  9990,2 52598  53.2150 181.6870 0001284  72.9115 287.2017 15.08836590 93967,6917.891,95.438,540.644,538.868,0.0
52598.0,STARLINK-4019,PAYLOAD,2024-01-20 15:28:05,15.08837265,0.00013,53.2153,181.3895,71.5568,288.5565,2.8714e-05,1.69e-06,0.0,0 STARLINK-4019,1 52598U 22052A   24020.64450551  .00000169  00000-0  28714-4 0  9990,2 52598  53.2153 181.3895 0001300  71.5568 288.5565 15.08837265 93546,6917.889,95.438,540.653,538.854,0.0
52598.0,STARLINK-4019,PAYLOAD,2024-01-21 16:54:14,15.08852272,0.0001542,53.2171,176.6347,90.9824,269.1345,5.6421e-05,6.1e-06,0.0,0 STARLINK-4019,1 52598U 22052A   24021.70433537  .00000610  00000-0  56421-4 0  9990,2 52598  53.2171 176.6347 0001542  90.9824 269.1345 15.08852272 93707,6917.843,95.437,540.775,538.641,0.0
52598.0,STARLINK-4019,PAYLOAD,2024-01-22 10:23:29,15.08836798,0.0001824,53.2194,173.3667,102.1759,257.9437,0.00012363,1.68e-05,0.0,0 STARLINK-4019,1 52598U 22052A   24022.43298422  .00001680  00000-0  12363-3 0  9997,2 52598  53.2194 173.3667 0001824 102.1759 257.9437 15.08836798 93811,6917.89,95.438,541.017,538.493,0.0
52598.0,STARLINK-4019,PAYLOAD,2024-01-22 16:45:02,15.08836072,0.0001387,53.2158,172.1711,84.3517,275.7633,6.451e-05,7.39e-06,0.0,0 STARLINK-4019,1 52598U 22052A   24022.69794616  .00000739  00000-0  64510-4 0  9997,2 52598  53.2158 172.1711 0001387  84.3517 275.7633 15.08836072 94288,6917.892,95.438,540.717,538.798,0.0
52598.0,STARLINK-4019,PAYLOAD,2024-01-23 15:00:26,15.08846153,0.0001475,53.2167,168.0056,101.3931,258.7227,-1.1779e-05,-4.75e-06,0.0,0 STARLINK-4019,1 52598U 22052A   24023.62530198 -.00000475  00000-0 -11779-4 0  9992,2 52598  53.2167 168.0056 0001475 101.3931 258.7227 15.08846153 93990,6917.862,95.437,540.747,538.706,0.0
52598.0,STARLINK-4019,PAYLOAD,2024-01-24 14:51:13,15.08833253,0.0001378,53.2167,163.5466,91.6661,268.4489,2.499e-05,1.1e-06,0.0,0 STARLINK-4019,1 52598U 22052A   24024.61891197  .00000110  00000-0  24990-4 0  9994,2 52598  53.2167 163.5466 0001378  91.6661 268.4489 15.08833253 94578,6917.901,95.438,540.719,538.813,0.0
52598.0,STARLINK-4019,PAYLOAD,2024-01-24 16:26:37,15.08834401,0.0001387,53.2168,163.249,91.4565,268.6586,3.2095e-05,2.23e-06,0.0,0 STARLINK-4019,1 52598U 22052A   24024.68515122  .00000223  00000-0  32095-4 0  9992,2 52598  53.2168 163.2490 0001387  91.4565 268.6586 15.08834401 94154,6917.898,95.438,540.722,538.803,0.0
52598.0,STARLINK-4019,PAYLOAD,2024-01-25 14:42:01,15.08835182,0.0001481,53.2176,159.0918,102.3076,257.8082,5.9496e-05,6.59e-06,0.0,0 STARLINK-4019,1 52598U 22052A   24025.61251301  .00000659  00000-0  59496-4 0  9999,2 52598  53.2176 159.0918 0001481 102.3076 257.8082 15.08835182 94726,6917.895,95.438,540.785,538.736,0.0
52598.0,STARLINK-4019,PAYLOAD,2024-01-25 16:17:24,15.08826371,0.0001463,53.2174,158.7882,89.3272,270.7888,0.00022455,3.286e-05,0.0,0 STARLINK-4019,1 52598U 22052A   24025.67875353  .00003286  00000-0  22455-3 0  9997,2 52598  53.2174 158.7882 0001463  89.3272 270.7888 15.08826371 94731,6917.922,95.438,540.799,538.775,0.0
